personId,name,email,dob,address1,address2,city,state,zip,majorIds,bedId
7b1fb398-72d7-421e-808c-631a427bfbc4,David Taylor,david.taylor@example.com,1992-08-15,767 Walnut St,None,Georgetown,OH,None,"d4e98e77-084c-44cb-96f4-daa070339837, 7a2fc431-4201-42cd-9caf-491bbea4d309",nan
99a4b233-2804-420b-b757-039f0f3cceb7,Jane Wilson,jane.wilson@example.com,1969-08-20,168 Birch St,None,Riverside,FL,None,"e2044bd4-1abd-4618-afe5-40a46e84de86, 706c6c8e-1393-45ab-aaf3-da506ecf4e34; 577e82d0-af7f-42c8-b8a4-b2aebd5f3a04, f71ad4ca-19bf-4c17-ae15-b0a3c4cc4410, 365217a2-ee94-4f53-ab0d-afa5dae82b81",nan
cc3b2df2-a593-493e-af82-1f0d11c7439b,John Brown,john.brown@example.com,1967-12-14,726 Maple St,None,Fairview,PA,None,nan,a32b34cf-0356-4739-ab43-4a9ed70818f8
cb669177-4020-4284-a3dc-9a0c312411d4,Linda Taylor,linda.taylor@example.com,1983-12-04,171 Spruce St,None,Riverside,TX,None,"04412e42-e934-4548-9ba9-23f51c7000fc, 6e2fcabb-8f3d-49f0-886b-8ed66e343958; f9be4cc1-b02c-4b75-86d9-808f8b3b831b, aa60f295-c7a3-42b6-b33d-d89b97db7884",01f250f6-a3a3-492b-ba52-3f53f4483316
ba1443a2-dfeb-441b-b41d-078b36416704,Sarah Doe,sarah.doe@example.com,1986-08-31,987 Walnut St,None,Georgetown,OH,None,"167b9c80-7561-47be-8085-2d6928384a8d, 2c84420a-ea48-498e-a5e2-4f1c35da53d5, 39117613-cc53-48ed-96bb-deaff7fc37d3; 284dba4b-11ba-4538-aa6b-4379df7e5ca9, bf10ea30-d781-4636-97c7-b99eaee61dc2; 10d8ebb2-a991-43c8-870b-5012d7cfe7df, d86f4850-7f97-4e8d-a6e7-aa94fe3ccd52, db80c632-ca55-44ca-9201-ab7e3e7b935f; 2764f028-3b11-4620-827c-fa1f6110b6c9, 4f7a72a5-25b3-40fd-bf95-aab509eddcb5; 8cd0d078-9ec3-4099-936f-da60da492b7b, 8f20828e-f8eb-45a9-a8a8-2de18b98a4b2, a643c8b1-2260-47f0-a809-65f8e11fc777",f8ef5ea9-e2bf-4eda-9d7a-c7cdf30dc649
0fb01c62-21b7-43fc-a631-d2fcdd949e0a,Alice Williams,alice.williams@example.com,1958-09-06,965 Birch St,None,Greenville,NY,None,"ce75c366-c249-4564-b762-fae94bbeee1b, 730eb991-a367-4f80-8373-c00c0ee06e84",nan
9bcb32b8-234d-42e2-9dd9-c49399ab95f4,John Moore,john.moore@example.com,1987-08-14,145 Spruce St,None,Madison,TX,None,"0bd88d6a-a821-4755-9c94-f40f6bee0daf, c70ffb19-373a-46f4-a2fe-ca38b4e014f5",nan
7c94c883-20d4-46ab-a81d-3e2f89e1b195,Alice Davis,alice.davis@example.com,1990-11-08,487 Pine St,None,Springfield,CA,None,nan,5de80aef-9ee8-47b1-942f-1b900c39b8e3
82a1e50c-dfd2-4190-a043-fa0013e00a57,Emily Brown,emily.brown@example.com,1988-04-15,322 Cedar St,None,Salem,FL,None,"39e7879a-f9dd-46b8-b445-0ccbadc4209f, f7f814f7-2b9e-42bf-ac9d-fbd70372aebe",7e9f39d1-4385-495b-b485-5bceff951057
da88da77-1d78-4cc0-bc2f-80be282e8ce6,John Smith,john.smith@example.com,1988-06-27,860 Cedar St,None,Madison,PA,None,nan,6844029c-7429-44c5-b281-d0320f27618a
f1005104-0c61-4427-80ad-fa91db012adc,Bob Doe,bob.doe@example.com,1976-09-01,284 Elm St,None,Georgetown,PA,None,"6b57c035-c233-403c-956b-8954da89a830, 30de28e4-d3ae-4c14-af72-2bbd6426e15b, a4679772-25b6-42a3-89e3-ec9f85cf3507; c84821a7-9878-46e4-a666-34a538c10aa2, 4dafff49-03ab-44b7-ba88-0e2e22acc992, 5a076fd8-8e14-4c97-97a3-0d747dfb6883; 6b57c035-c233-403c-956b-8954da89a830, 30de28e4-d3ae-4c14-af72-2bbd6426e15b, a4679772-25b6-42a3-89e3-ec9f85cf3507",nan
0fcb5492-5b97-44b2-bd87-395e2c16c0d7,Jane Brown,jane.brown@example.com,1976-12-16,255 Oak St,None,Madison,TX,None,"8cd0d078-9ec3-4099-936f-da60da492b7b, 8f20828e-f8eb-45a9-a8a8-2de18b98a4b2, a643c8b1-2260-47f0-a809-65f8e11fc777; d92604c6-1626-4794-9cce-cf0a7e136c19, 75208d53-cb69-4b0c-ada6-e6d810d4fb14, 86565318-c69d-4b24-a6e7-a8997a8ed37e; 6b57c035-c233-403c-956b-8954da89a830, 30de28e4-d3ae-4c14-af72-2bbd6426e15b, a4679772-25b6-42a3-89e3-ec9f85cf3507",nan
4632ced6-53f0-4eea-995d-2496d19a806c,Sarah Smith,sarah.smith@example.com,1981-06-28,189 Pine St,None,Fairview,PA,None,nan,nan
78383456-9740-463e-8058-cd49381b0b81,James Davis,james.davis@example.com,1966-04-16,689 Oak St,None,Fairview,IL,None,"04d7d4e7-8a39-43ce-ac4d-6d236bd561dd, 777b7762-57ab-4aed-82e5-f888f1136d3b, 543e853c-20d9-4f40-9f8c-3ddf6533f68e; 4c310e5e-a0ec-421c-8534-fd3840f9b947, c999195f-a03c-4c20-8b89-4554e6d0c5af; 351ec0a1-c1f1-428c-b8be-65168be3f106, c5bfb9d7-bdaf-4022-b7f2-71a0171c0a39, 062815ec-ea52-4bc5-abe4-4c25af177dc8",nan
ae82afd8-fc74-4e1a-97b5-a4ab0312f053,Linda Brown,linda.brown@example.com,1994-03-08,538 Walnut St,None,Greenville,OH,None,nan,nan
d7f103c9-7070-4a31-9234-a53ad9a58300,David Miller,david.miller@example.com,1986-10-06,788 Spruce St,None,Salem,OH,None,"c10fb946-a52a-4709-be02-adfd54a22989, 6543b58d-48be-4076-81d7-242705449a72, d5ff57d1-f2f4-41c3-9a17-9d38643cc6b8",bc010d01-535b-44d9-a8e5-93ab9c98a026
65d6d385-ba86-450f-bc1b-c308944eb28c,John Williams,john.williams@example.com,1987-07-03,462 Cedar St,None,Madison,TX,None,"10d8ebb2-a991-43c8-870b-5012d7cfe7df, d86f4850-7f97-4e8d-a6e7-aa94fe3ccd52, db80c632-ca55-44ca-9201-ab7e3e7b935f; 6b57c035-c233-403c-956b-8954da89a830, 30de28e4-d3ae-4c14-af72-2bbd6426e15b, a4679772-25b6-42a3-89e3-ec9f85cf3507",108af9fc-e263-4662-a637-3773d3355db8
c097be42-b137-4532-9b6b-fab2ed7be18d,John Davis,john.davis@example.com,1966-09-03,363 Elm St,None,Greenville,OH,None,"8cd0d078-9ec3-4099-936f-da60da492b7b, 8f20828e-f8eb-45a9-a8a8-2de18b98a4b2, a643c8b1-2260-47f0-a809-65f8e11fc777; 577e82d0-af7f-42c8-b8a4-b2aebd5f3a04, f71ad4ca-19bf-4c17-ae15-b0a3c4cc4410, 365217a2-ee94-4f53-ab0d-afa5dae82b81; 71701dba-e80c-4632-8c92-1bbc924b0a07, 6c941ddb-53ee-4a0e-b912-1d0617f3db22; a047ca63-0ce9-47fc-a30b-7c3c700f53f0, 0c30d0e0-7882-4a22-b25d-bc7906a6ac85, a4b2625b-b619-4ab9-939b-93e3e5c33f56; 4800de25-bed7-43b2-8556-35d273fc3f49, 24b4daaf-4771-450c-896c-98565cc327cb",nan
0851484b-c52e-4aee-a70b-db62043c7b92,Sarah Wilson,sarah.wilson@example.com,1996-08-13,436 Elm St,None,Salem,FL,None,"2764f028-3b11-4620-827c-fa1f6110b6c9, 4f7a72a5-25b3-40fd-bf95-aab509eddcb5",3be41337-2781-4385-858e-d8ff593d383c
a5992ead-879e-4ed9-8cd4-97cce9a6856f,John Miller,john.miller@example.com,1952-01-24,271 Spruce St,None,Georgetown,TX,None,"3c772495-8dc7-4c19-998d-9c0668a2e556, 151efff6-2d2c-481c-8ef9-dbcb193eaa25; 10d8ebb2-a991-43c8-870b-5012d7cfe7df, d86f4850-7f97-4e8d-a6e7-aa94fe3ccd52, db80c632-ca55-44ca-9201-ab7e3e7b935f; 39e7879a-f9dd-46b8-b445-0ccbadc4209f, f7f814f7-2b9e-42bf-ac9d-fbd70372aebe; c3d5bdf4-317c-4574-bd52-5faec3825597, b2193225-084b-4016-a829-9625f5f60815",b1e9bd7e-cc17-436d-8c89-54978874200c
64772f74-cda0-4fc1-8ece-d89d8cf621da,Emily Davis,emily.davis@example.com,1960-09-11,236 Pine St,None,Madison,PA,None,"6b57c035-c233-403c-956b-8954da89a830, 30de28e4-d3ae-4c14-af72-2bbd6426e15b, a4679772-25b6-42a3-89e3-ec9f85cf3507; c3d5bdf4-317c-4574-bd52-5faec3825597, b2193225-084b-4016-a829-9625f5f60815; 351ec0a1-c1f1-428c-b8be-65168be3f106, c5bfb9d7-bdaf-4022-b7f2-71a0171c0a39, 062815ec-ea52-4bc5-abe4-4c25af177dc8; 41149669-ae31-4873-a214-95f409c581fb, 2d97f743-025a-44e3-9d85-8a56694596db, fe49afdf-4147-4118-9545-3f9d777f256f",nan
cfda8cc4-0c45-47a0-ba16-13b9916424cc,James Moore,james.moore@example.com,1966-05-24,559 Oak St,None,Fairview,IL,None,"88e60e27-de21-40d9-a326-4ad7cc0d4f28, 11c2c53d-d613-43f5-94a1-05e10bbc65e3, 4aefa076-4126-472b-a2b9-d0703dfff36a; e2044bd4-1abd-4618-afe5-40a46e84de86, 706c6c8e-1393-45ab-aaf3-da506ecf4e34; c84821a7-9878-46e4-a666-34a538c10aa2, 4dafff49-03ab-44b7-ba88-0e2e22acc992, 5a076fd8-8e14-4c97-97a3-0d747dfb6883; 1e4c7f9f-40f5-4032-bd44-7036952e3105, 78c50e49-8479-4955-9a7c-01e1566639db, a1a5241f-26ac-42f1-aac1-4c8358f69e45",nan
f15909a1-9b5a-4726-9d91-0ac6470190cb,Sarah Moore,sarah.moore@example.com,1974-09-02,591 Birch St,None,Georgetown,OH,None,"d24fcc15-c1ac-46b1-aca8-dc998cf45e78, 27ff2312-60fb-4128-aefb-985084dd84bd, c7c4fc45-cf72-4bac-8e31-0e5dc0f1bb46; 6b57c035-c233-403c-956b-8954da89a830, 30de28e4-d3ae-4c14-af72-2bbd6426e15b, a4679772-25b6-42a3-89e3-ec9f85cf3507",3f841a45-7715-416d-ad00-9b458ab6fdbf
b9caf4d6-d2a6-41e4-9303-38e10bd88b4f,Michael Brown,michael.brown@example.com,1961-08-17,335 Pine St,None,Riverside,NY,None,"6b57c035-c233-403c-956b-8954da89a830, 30de28e4-d3ae-4c14-af72-2bbd6426e15b, a4679772-25b6-42a3-89e3-ec9f85cf3507; 10d8ebb2-a991-43c8-870b-5012d7cfe7df, d86f4850-7f97-4e8d-a6e7-aa94fe3ccd52, db80c632-ca55-44ca-9201-ab7e3e7b935f",80a10d36-7718-40c6-86ef-ee894f021a73
e92704a6-7f85-4d98-b86a-720fea990af3,David Davis,david.davis@example.com,1988-05-02,609 Oak St,None,Greenville,IL,None,nan,nan
4f75e6ca-533d-4a93-b273-3d7db4f823e4,Bob Smith,bob.smith@example.com,1965-10-03,521 Spruce St,None,Springfield,FL,None,"a047ca63-0ce9-47fc-a30b-7c3c700f53f0, 0c30d0e0-7882-4a22-b25d-bc7906a6ac85, a4b2625b-b619-4ab9-939b-93e3e5c33f56; 88e60e27-de21-40d9-a326-4ad7cc0d4f28, 11c2c53d-d613-43f5-94a1-05e10bbc65e3, 4aefa076-4126-472b-a2b9-d0703dfff36a; 04d7d4e7-8a39-43ce-ac4d-6d236bd561dd, 777b7762-57ab-4aed-82e5-f888f1136d3b, 543e853c-20d9-4f40-9f8c-3ddf6533f68e",655468a2-d6dc-4dd2-84ac-7f0002299386
c5da647a-2a32-4707-983a-76c102447e4e,James Williams,james.williams@example.com,1955-08-18,224 Oak St,None,Riverside,OH,None,"c84821a7-9878-46e4-a666-34a538c10aa2, 4dafff49-03ab-44b7-ba88-0e2e22acc992, 5a076fd8-8e14-4c97-97a3-0d747dfb6883; 5a549348-08b9-406a-80ec-ce1edd4be229, 64148372-6fbd-42b9-8579-e7a976266e26, f10f5f47-30bf-4aa7-ac33-890f48b80cf6; 71701dba-e80c-4632-8c92-1bbc924b0a07, 6c941ddb-53ee-4a0e-b912-1d0617f3db22; d4e98e77-084c-44cb-96f4-daa070339837, 7a2fc431-4201-42cd-9caf-491bbea4d309; 5a549348-08b9-406a-80ec-ce1edd4be229, 64148372-6fbd-42b9-8579-e7a976266e26, f10f5f47-30bf-4aa7-ac33-890f48b80cf6",nan
b2857a4c-6b82-4f88-a91b-d8557456c226,David Brown,david.brown@example.com,1986-02-23,240 Elm St,None,Springfield,TX,None,"71701dba-e80c-4632-8c92-1bbc924b0a07, 6c941ddb-53ee-4a0e-b912-1d0617f3db22; 04d7d4e7-8a39-43ce-ac4d-6d236bd561dd, 777b7762-57ab-4aed-82e5-f888f1136d3b, 543e853c-20d9-4f40-9f8c-3ddf6533f68e; 167b9c80-7561-47be-8085-2d6928384a8d, 2c84420a-ea48-498e-a5e2-4f1c35da53d5, 39117613-cc53-48ed-96bb-deaff7fc37d3; 2764f028-3b11-4620-827c-fa1f6110b6c9, 4f7a72a5-25b3-40fd-bf95-aab509eddcb5",nan
d54feca6-eb09-4381-ae61-e5c7da4fba7a,Sarah Davis,sarah.davis@example.com,1954-02-04,189 Elm St,None,Springfield,CA,None,"c8065501-6b59-49d3-8c80-845592c30a33, 1abf440d-a728-4da3-8fc3-b2edf4779bb6; d92604c6-1626-4794-9cce-cf0a7e136c19, 75208d53-cb69-4b0c-ada6-e6d810d4fb14, 86565318-c69d-4b24-a6e7-a8997a8ed37e",nan
29468257-12ce-45da-a17c-c69e776c7e69,Emily Moore,emily.moore@example.com,1957-05-31,175 Walnut St,None,Springfield,CA,None,nan,nan
8078b4cf-c3e6-4cab-b5b0-731f3df79526,James Taylor,james.taylor@example.com,1954-10-24,253 Walnut St,None,Georgetown,PA,None,nan,nan
c958ef40-8765-4b9c-b0a3-da0deb8ec08b,Linda Doe,linda.doe@example.com,1988-09-29,743 Spruce St,None,Springfield,IL,None,"d4e98e77-084c-44cb-96f4-daa070339837, 7a2fc431-4201-42cd-9caf-491bbea4d309",b452029f-43b2-425a-85bb-659367b67a82
3ff52f27-5f8e-4767-b1cd-549f2f244cc5,Emily Taylor,emily.taylor@example.com,1997-01-09,286 Spruce St,None,Salem,NY,None,"1e4c7f9f-40f5-4032-bd44-7036952e3105, 78c50e49-8479-4955-9a7c-01e1566639db, a1a5241f-26ac-42f1-aac1-4c8358f69e45; 10d8ebb2-a991-43c8-870b-5012d7cfe7df, d86f4850-7f97-4e8d-a6e7-aa94fe3ccd52, db80c632-ca55-44ca-9201-ab7e3e7b935f; 66b3693d-0cc9-4c4a-83ae-a3fb65ac926d, dfc050e4-0c5b-4075-ae6d-ea8cac8a1624, 843baa78-1896-4ba7-9433-283632d3c36f; 3c772495-8dc7-4c19-998d-9c0668a2e556, 151efff6-2d2c-481c-8ef9-dbcb193eaa25; 284dba4b-11ba-4538-aa6b-4379df7e5ca9, bf10ea30-d781-4636-97c7-b99eaee61dc2",c2e2984c-72bb-4ebe-8798-25199bba2d3b
7039a8bd-5478-4626-969d-c42d5776650d,Alice Doe,alice.doe@example.com,1952-08-09,883 Spruce St,None,Riverside,OH,None,"dfbc61aa-9c19-4b85-ba9f-aab66a99f839, 0a6bdc3e-9a22-4153-ac64-db5f4bdfbfa0",nan
951ce315-8792-4325-afa5-33fbea08b8c3,Bob Moore,bob.moore@example.com,1996-03-11,968 Pine St,None,Salem,TX,None,"167b9c80-7561-47be-8085-2d6928384a8d, 2c84420a-ea48-498e-a5e2-4f1c35da53d5, 39117613-cc53-48ed-96bb-deaff7fc37d3; a72879e2-e944-4360-9850-c11ff0b141db, 309b4ad1-9540-4324-a5d8-21c507b5af91",nan
97ab62bb-b25a-4474-86f8-4aaf35d8f6d6,Bob Williams,bob.williams@example.com,1969-08-28,656 Maple St,None,Fairview,TX,None,"167b9c80-7561-47be-8085-2d6928384a8d, 2c84420a-ea48-498e-a5e2-4f1c35da53d5, 39117613-cc53-48ed-96bb-deaff7fc37d3; a72879e2-e944-4360-9850-c11ff0b141db, 309b4ad1-9540-4324-a5d8-21c507b5af91; c9185d45-aef3-4e8e-8c96-b7fdfa1b3b5f, 0da7a765-c6a5-4769-8a82-5c2ce90266e1, e0316b35-cebb-4aca-bb21-195e46fe7b85; 88e60e27-de21-40d9-a326-4ad7cc0d4f28, 11c2c53d-d613-43f5-94a1-05e10bbc65e3, 4aefa076-4126-472b-a2b9-d0703dfff36a; 10d8ebb2-a991-43c8-870b-5012d7cfe7df, d86f4850-7f97-4e8d-a6e7-aa94fe3ccd52, db80c632-ca55-44ca-9201-ab7e3e7b935f",ac531dfa-0db6-4fd7-a3f3-5d675de7c750
784ca0e6-694d-4d25-ba5d-c80178808874,Emily Wilson,emily.wilson@example.com,1991-01-05,992 Birch St,None,Springfield,NY,None,"66b3693d-0cc9-4c4a-83ae-a3fb65ac926d, dfc050e4-0c5b-4075-ae6d-ea8cac8a1624, 843baa78-1896-4ba7-9433-283632d3c36f; e2044bd4-1abd-4618-afe5-40a46e84de86, 706c6c8e-1393-45ab-aaf3-da506ecf4e34; 66b3693d-0cc9-4c4a-83ae-a3fb65ac926d, dfc050e4-0c5b-4075-ae6d-ea8cac8a1624, 843baa78-1896-4ba7-9433-283632d3c36f; cacf6a8b-c266-4454-a56d-a6e3af9c894d, c36473a3-56d9-4ba2-9eee-c6a651dfab9b; 41149669-ae31-4873-a214-95f409c581fb, 2d97f743-025a-44e3-9d85-8a56694596db, fe49afdf-4147-4118-9545-3f9d777f256f",95426303-c1af-44d1-bfcd-a9c011352b6c
40c6de4b-3d44-4c41-96dd-6cfca9f2bcc5,Bob Taylor,bob.taylor@example.com,1977-07-09,859 Pine St,None,Fairview,FL,None,"f9be4cc1-b02c-4b75-86d9-808f8b3b831b, aa60f295-c7a3-42b6-b33d-d89b97db7884; 7468a134-27ba-4c1e-8b24-8ff51cecfb5c, 5f6518c0-3ade-43af-8ac9-f57de1a1f923, a8ac4907-3edd-4e5c-8580-cc24023ef28d; 8cd0d078-9ec3-4099-936f-da60da492b7b, 8f20828e-f8eb-45a9-a8a8-2de18b98a4b2, a643c8b1-2260-47f0-a809-65f8e11fc777; 41149669-ae31-4873-a214-95f409c581fb, 2d97f743-025a-44e3-9d85-8a56694596db, fe49afdf-4147-4118-9545-3f9d777f256f; 577e82d0-af7f-42c8-b8a4-b2aebd5f3a04, f71ad4ca-19bf-4c17-ae15-b0a3c4cc4410, 365217a2-ee94-4f53-ab0d-afa5dae82b81",87a98948-0ce5-4f7c-9e91-1dbc6de875e0
114ac99a-b2e2-4da9-844b-0bc5b5d40ec6,Sarah Brown,sarah.brown@example.com,1975-11-03,177 Oak St,None,Springfield,CA,None,"c3d5bdf4-317c-4574-bd52-5faec3825597, b2193225-084b-4016-a829-9625f5f60815; 41149669-ae31-4873-a214-95f409c581fb, 2d97f743-025a-44e3-9d85-8a56694596db, fe49afdf-4147-4118-9545-3f9d777f256f; cacf6a8b-c266-4454-a56d-a6e3af9c894d, c36473a3-56d9-4ba2-9eee-c6a651dfab9b; 88e60e27-de21-40d9-a326-4ad7cc0d4f28, 11c2c53d-d613-43f5-94a1-05e10bbc65e3, 4aefa076-4126-472b-a2b9-d0703dfff36a",nan
48d9bd03-4aa6-42ef-9d94-89ac6d706f31,Michael Moore,michael.moore@example.com,1982-05-05,983 Spruce St,None,Georgetown,FL,None,"e2044bd4-1abd-4618-afe5-40a46e84de86, 706c6c8e-1393-45ab-aaf3-da506ecf4e34; 284dba4b-11ba-4538-aa6b-4379df7e5ca9, bf10ea30-d781-4636-97c7-b99eaee61dc2; a210e93e-b162-4d63-a046-d28ea1f309cc, 37aae3ad-460c-4bfe-bb5e-bf69cf69ae0a, 12623946-2af7-4464-a8e0-2566ea031040; 88e60e27-de21-40d9-a326-4ad7cc0d4f28, 11c2c53d-d613-43f5-94a1-05e10bbc65e3, 4aefa076-4126-472b-a2b9-d0703dfff36a; 41149669-ae31-4873-a214-95f409c581fb, 2d97f743-025a-44e3-9d85-8a56694596db, fe49afdf-4147-4118-9545-3f9d777f256f",nan
9874f222-e125-4f87-a19a-d3863246c801,Jane Johnson,jane.johnson@example.com,1965-01-19,337 Walnut St,None,Springfield,PA,None,"04d7d4e7-8a39-43ce-ac4d-6d236bd561dd, 777b7762-57ab-4aed-82e5-f888f1136d3b, 543e853c-20d9-4f40-9f8c-3ddf6533f68e; 4c310e5e-a0ec-421c-8534-fd3840f9b947, c999195f-a03c-4c20-8b89-4554e6d0c5af; d24fcc15-c1ac-46b1-aca8-dc998cf45e78, 27ff2312-60fb-4128-aefb-985084dd84bd, c7c4fc45-cf72-4bac-8e31-0e5dc0f1bb46",nan
7102ff6d-9774-4be3-a9dd-e400aa5b3313,Jane Davis,jane.davis@example.com,1959-03-23,862 Birch St,None,Madison,OH,None,"d24fcc15-c1ac-46b1-aca8-dc998cf45e78, 27ff2312-60fb-4128-aefb-985084dd84bd, c7c4fc45-cf72-4bac-8e31-0e5dc0f1bb46; 577e82d0-af7f-42c8-b8a4-b2aebd5f3a04, f71ad4ca-19bf-4c17-ae15-b0a3c4cc4410, 365217a2-ee94-4f53-ab0d-afa5dae82b81",5c47cf06-129c-4b5a-9684-fc16ccb6e794
58e411a6-5607-4c9b-9b6d-c68d8fc8b4be,Linda Wilson,linda.wilson@example.com,1959-11-12,877 Walnut St,None,Riverside,PA,None,"04412e42-e934-4548-9ba9-23f51c7000fc, 6e2fcabb-8f3d-49f0-886b-8ed66e343958; 8cd0d078-9ec3-4099-936f-da60da492b7b, 8f20828e-f8eb-45a9-a8a8-2de18b98a4b2, a643c8b1-2260-47f0-a809-65f8e11fc777",nan
08515d01-e2e0-4f59-bc57-caa688304fe3,Emily Williams,emily.williams@example.com,1988-12-16,960 Walnut St,None,Riverside,NY,None,nan,nan
0d92bcb1-f7b2-4c94-875c-1c0c250f7aec,David Johnson,david.johnson@example.com,1983-04-03,952 Spruce St,None,Greenville,FL,None,"c8065501-6b59-49d3-8c80-845592c30a33, 1abf440d-a728-4da3-8fc3-b2edf4779bb6; d4e98e77-084c-44cb-96f4-daa070339837, 7a2fc431-4201-42cd-9caf-491bbea4d309",nan
f936e320-a908-49bc-8683-412711884553,John Taylor,john.taylor@example.com,1977-08-30,106 Birch St,None,Madison,TX,None,"351ec0a1-c1f1-428c-b8be-65168be3f106, c5bfb9d7-bdaf-4022-b7f2-71a0171c0a39, 062815ec-ea52-4bc5-abe4-4c25af177dc8; 0bd88d6a-a821-4755-9c94-f40f6bee0daf, c70ffb19-373a-46f4-a2fe-ca38b4e014f5",d9d0e1da-bc81-40b5-8038-9679c7895ed5
61bfeaa6-e7db-4c31-a5d3-bc175c78c27c,Michael Taylor,michael.taylor@example.com,1957-10-25,844 Oak St,None,Fairview,NY,None,"71701dba-e80c-4632-8c92-1bbc924b0a07, 6c941ddb-53ee-4a0e-b912-1d0617f3db22; d24fcc15-c1ac-46b1-aca8-dc998cf45e78, 27ff2312-60fb-4128-aefb-985084dd84bd, c7c4fc45-cf72-4bac-8e31-0e5dc0f1bb46; a047ca63-0ce9-47fc-a30b-7c3c700f53f0, 0c30d0e0-7882-4a22-b25d-bc7906a6ac85, a4b2625b-b619-4ab9-939b-93e3e5c33f56; dfbc61aa-9c19-4b85-ba9f-aab66a99f839, 0a6bdc3e-9a22-4153-ac64-db5f4bdfbfa0; c3d5bdf4-317c-4574-bd52-5faec3825597, b2193225-084b-4016-a829-9625f5f60815",d26eecc5-5bf4-4bfc-8e72-a6043b8d0092
0d54122e-ce34-4bac-882c-1d9b1c5d1fc7,John Wilson,john.wilson@example.com,1988-11-03,545 Cedar St,None,Greenville,PA,None,"04d7d4e7-8a39-43ce-ac4d-6d236bd561dd, 777b7762-57ab-4aed-82e5-f888f1136d3b, 543e853c-20d9-4f40-9f8c-3ddf6533f68e; 88e60e27-de21-40d9-a326-4ad7cc0d4f28, 11c2c53d-d613-43f5-94a1-05e10bbc65e3, 4aefa076-4126-472b-a2b9-d0703dfff36a; 10d8ebb2-a991-43c8-870b-5012d7cfe7df, d86f4850-7f97-4e8d-a6e7-aa94fe3ccd52, db80c632-ca55-44ca-9201-ab7e3e7b935f; 71701dba-e80c-4632-8c92-1bbc924b0a07, 6c941ddb-53ee-4a0e-b912-1d0617f3db22",8b7d88ce-821c-4c27-8784-fea7977d432e
afce117e-f675-4c8c-b830-7d0624c35d40,Michael Smith,michael.smith@example.com,1966-05-18,970 Pine St,None,Georgetown,OH,None,"ce75c366-c249-4564-b762-fae94bbeee1b, 730eb991-a367-4f80-8373-c00c0ee06e84; 6b57c035-c233-403c-956b-8954da89a830, 30de28e4-d3ae-4c14-af72-2bbd6426e15b, a4679772-25b6-42a3-89e3-ec9f85cf3507; f9be4cc1-b02c-4b75-86d9-808f8b3b831b, aa60f295-c7a3-42b6-b33d-d89b97db7884",nan
339c1526-9b86-407a-8b5c-6ed4c7bf7064,Linda Davis,linda.davis@example.com,1971-03-08,506 Walnut St,None,Greenville,IL,None,"1e4c7f9f-40f5-4032-bd44-7036952e3105, 78c50e49-8479-4955-9a7c-01e1566639db, a1a5241f-26ac-42f1-aac1-4c8358f69e45",378c5576-5c56-4e44-8e49-be6a7401db37
5b10bfd7-62bf-4f7a-b660-b881ddc1deb3,Jane Doe,jane.doe@example.com,1989-02-15,653 Cedar St,None,Fairview,OH,None,"5a549348-08b9-406a-80ec-ce1edd4be229, 64148372-6fbd-42b9-8579-e7a976266e26, f10f5f47-30bf-4aa7-ac33-890f48b80cf6; 1e4c7f9f-40f5-4032-bd44-7036952e3105, 78c50e49-8479-4955-9a7c-01e1566639db, a1a5241f-26ac-42f1-aac1-4c8358f69e45; c84821a7-9878-46e4-a666-34a538c10aa2, 4dafff49-03ab-44b7-ba88-0e2e22acc992, 5a076fd8-8e14-4c97-97a3-0d747dfb6883; a047ca63-0ce9-47fc-a30b-7c3c700f53f0, 0c30d0e0-7882-4a22-b25d-bc7906a6ac85, a4b2625b-b619-4ab9-939b-93e3e5c33f56",nan
50f27b10-2c31-4b52-b0fb-ec3017b33c12,James Wilson,james.wilson@example.com,1978-02-08,352 Cedar St,None,Greenville,NY,None,nan,7978a876-3872-4aa9-b08d-dfd1b2399832
bd408b63-be60-4eef-93b2-4334d20144fd,Alice Miller,alice.miller@example.com,1988-01-07,102 Oak St,None,Springfield,OH,None,"04d7d4e7-8a39-43ce-ac4d-6d236bd561dd, 777b7762-57ab-4aed-82e5-f888f1136d3b, 543e853c-20d9-4f40-9f8c-3ddf6533f68e; c10fb946-a52a-4709-be02-adfd54a22989, 6543b58d-48be-4076-81d7-242705449a72, d5ff57d1-f2f4-41c3-9a17-9d38643cc6b8; c9185d45-aef3-4e8e-8c96-b7fdfa1b3b5f, 0da7a765-c6a5-4769-8a82-5c2ce90266e1, e0316b35-cebb-4aca-bb21-195e46fe7b85; c8065501-6b59-49d3-8c80-845592c30a33, 1abf440d-a728-4da3-8fc3-b2edf4779bb6",nan
6a064f14-b3c5-4a5c-beed-7d721cd3918c,Jane Moore,jane.moore@example.com,1951-12-16,563 Walnut St,None,Georgetown,CA,None,"c9185d45-aef3-4e8e-8c96-b7fdfa1b3b5f, 0da7a765-c6a5-4769-8a82-5c2ce90266e1, e0316b35-cebb-4aca-bb21-195e46fe7b85; 10d8ebb2-a991-43c8-870b-5012d7cfe7df, d86f4850-7f97-4e8d-a6e7-aa94fe3ccd52, db80c632-ca55-44ca-9201-ab7e3e7b935f; c3d5bdf4-317c-4574-bd52-5faec3825597, b2193225-084b-4016-a829-9625f5f60815; 66b3693d-0cc9-4c4a-83ae-a3fb65ac926d, dfc050e4-0c5b-4075-ae6d-ea8cac8a1624, 843baa78-1896-4ba7-9433-283632d3c36f; 10d8ebb2-a991-43c8-870b-5012d7cfe7df, d86f4850-7f97-4e8d-a6e7-aa94fe3ccd52, db80c632-ca55-44ca-9201-ab7e3e7b935f",nan
8086c811-84be-43f2-8fb7-52660bb63b1e,David Williams,david.williams@example.com,1988-08-21,232 Birch St,None,Georgetown,PA,None,"04412e42-e934-4548-9ba9-23f51c7000fc, 6e2fcabb-8f3d-49f0-886b-8ed66e343958; c3d5bdf4-317c-4574-bd52-5faec3825597, b2193225-084b-4016-a829-9625f5f60815; a72879e2-e944-4360-9850-c11ff0b141db, 309b4ad1-9540-4324-a5d8-21c507b5af91",nan
f2546444-d125-4d07-8382-437b4e81eb12,Linda Johnson,linda.johnson@example.com,1961-08-15,907 Pine St,None,Riverside,OH,None,"d4e98e77-084c-44cb-96f4-daa070339837, 7a2fc431-4201-42cd-9caf-491bbea4d309; 04412e42-e934-4548-9ba9-23f51c7000fc, 6e2fcabb-8f3d-49f0-886b-8ed66e343958; 6b57c035-c233-403c-956b-8954da89a830, 30de28e4-d3ae-4c14-af72-2bbd6426e15b, a4679772-25b6-42a3-89e3-ec9f85cf3507",nan
98c695fe-e802-4df1-9739-285c0e475e5a,David Doe,david.doe@example.com,1992-09-08,251 Birch St,None,Salem,PA,None,"39e7879a-f9dd-46b8-b445-0ccbadc4209f, f7f814f7-2b9e-42bf-ac9d-fbd70372aebe",b81f7bc9-90f6-4185-ab50-e2c0699e90df
61542117-751f-4382-8e6f-b2ad7f4c17f2,John Johnson,john.johnson@example.com,1982-09-17,673 Pine St,None,Fairview,IL,None,"1e4c7f9f-40f5-4032-bd44-7036952e3105, 78c50e49-8479-4955-9a7c-01e1566639db, a1a5241f-26ac-42f1-aac1-4c8358f69e45; e2044bd4-1abd-4618-afe5-40a46e84de86, 706c6c8e-1393-45ab-aaf3-da506ecf4e34; 66b3693d-0cc9-4c4a-83ae-a3fb65ac926d, dfc050e4-0c5b-4075-ae6d-ea8cac8a1624, 843baa78-1896-4ba7-9433-283632d3c36f",nan
723a2264-1065-4651-ab25-78e5319211f8,Emily Miller,emily.miller@example.com,1972-12-09,169 Elm St,None,Riverside,FL,None,"dfbc61aa-9c19-4b85-ba9f-aab66a99f839, 0a6bdc3e-9a22-4153-ac64-db5f4bdfbfa0; d92604c6-1626-4794-9cce-cf0a7e136c19, 75208d53-cb69-4b0c-ada6-e6d810d4fb14, 86565318-c69d-4b24-a6e7-a8997a8ed37e; 04412e42-e934-4548-9ba9-23f51c7000fc, 6e2fcabb-8f3d-49f0-886b-8ed66e343958",nan
a8c2c000-620a-4d13-b4a4-29027cb4bfe3,Bob Wilson,bob.wilson@example.com,1997-12-21,139 Cedar St,None,Salem,CA,None,nan,nan
82f03452-4d79-4b76-9a1c-7040dfcec253,David Wilson,david.wilson@example.com,1992-10-03,151 Walnut St,None,Fairview,FL,None,"d4e98e77-084c-44cb-96f4-daa070339837, 7a2fc431-4201-42cd-9caf-491bbea4d309; c3d5bdf4-317c-4574-bd52-5faec3825597, b2193225-084b-4016-a829-9625f5f60815; 4c310e5e-a0ec-421c-8534-fd3840f9b947, c999195f-a03c-4c20-8b89-4554e6d0c5af; 8cd0d078-9ec3-4099-936f-da60da492b7b, 8f20828e-f8eb-45a9-a8a8-2de18b98a4b2, a643c8b1-2260-47f0-a809-65f8e11fc777; 71701dba-e80c-4632-8c92-1bbc924b0a07, 6c941ddb-53ee-4a0e-b912-1d0617f3db22",1181ac83-1fdb-4e18-b42f-a44b360a1e67
672eb3b9-7243-4766-ad24-9144a1a1d3be,Bob Brown,bob.brown@example.com,1992-06-22,722 Birch St,None,Fairview,CA,None,"41149669-ae31-4873-a214-95f409c581fb, 2d97f743-025a-44e3-9d85-8a56694596db, fe49afdf-4147-4118-9545-3f9d777f256f; 6b57c035-c233-403c-956b-8954da89a830, 30de28e4-d3ae-4c14-af72-2bbd6426e15b, a4679772-25b6-42a3-89e3-ec9f85cf3507; c84821a7-9878-46e4-a666-34a538c10aa2, 4dafff49-03ab-44b7-ba88-0e2e22acc992, 5a076fd8-8e14-4c97-97a3-0d747dfb6883",nan
b2c720fe-b6c5-4670-bd8e-6d0fa78c0656,Alice Moore,alice.moore@example.com,1960-02-11,329 Oak St,None,Springfield,NY,None,"4800de25-bed7-43b2-8556-35d273fc3f49, 24b4daaf-4771-450c-896c-98565cc327cb; 66b3693d-0cc9-4c4a-83ae-a3fb65ac926d, dfc050e4-0c5b-4075-ae6d-ea8cac8a1624, 843baa78-1896-4ba7-9433-283632d3c36f; 88e60e27-de21-40d9-a326-4ad7cc0d4f28, 11c2c53d-d613-43f5-94a1-05e10bbc65e3, 4aefa076-4126-472b-a2b9-d0703dfff36a; a72879e2-e944-4360-9850-c11ff0b141db, 309b4ad1-9540-4324-a5d8-21c507b5af91",nan
0062654f-b7f9-4056-8c5b-3ef5726f5cd9,James Miller,james.miller@example.com,1972-03-15,573 Cedar St,None,Madison,PA,None,"dfbc61aa-9c19-4b85-ba9f-aab66a99f839, 0a6bdc3e-9a22-4153-ac64-db5f4bdfbfa0; d92604c6-1626-4794-9cce-cf0a7e136c19, 75208d53-cb69-4b0c-ada6-e6d810d4fb14, 86565318-c69d-4b24-a6e7-a8997a8ed37e; 4c310e5e-a0ec-421c-8534-fd3840f9b947, c999195f-a03c-4c20-8b89-4554e6d0c5af",1d8eb8d8-5029-4fb4-a85f-004215e8333d
6c118356-92d8-4773-95ea-72df0fb7c4b6,Alice Johnson,alice.johnson@example.com,1952-01-15,122 Elm St,None,Riverside,IL,None,"66b3693d-0cc9-4c4a-83ae-a3fb65ac926d, dfc050e4-0c5b-4075-ae6d-ea8cac8a1624, 843baa78-1896-4ba7-9433-283632d3c36f; 6b57c035-c233-403c-956b-8954da89a830, 30de28e4-d3ae-4c14-af72-2bbd6426e15b, a4679772-25b6-42a3-89e3-ec9f85cf3507; 7468a134-27ba-4c1e-8b24-8ff51cecfb5c, 5f6518c0-3ade-43af-8ac9-f57de1a1f923, a8ac4907-3edd-4e5c-8580-cc24023ef28d; ce75c366-c249-4564-b762-fae94bbeee1b, 730eb991-a367-4f80-8373-c00c0ee06e84; c10fb946-a52a-4709-be02-adfd54a22989, 6543b58d-48be-4076-81d7-242705449a72, d5ff57d1-f2f4-41c3-9a17-9d38643cc6b8",nan
34669942-871e-4c50-a47b-ad8ffa65a4c7,Michael Johnson,michael.johnson@example.com,1978-05-14,352 Walnut St,None,Riverside,PA,None,"04d7d4e7-8a39-43ce-ac4d-6d236bd561dd, 777b7762-57ab-4aed-82e5-f888f1136d3b, 543e853c-20d9-4f40-9f8c-3ddf6533f68e; a210e93e-b162-4d63-a046-d28ea1f309cc, 37aae3ad-460c-4bfe-bb5e-bf69cf69ae0a, 12623946-2af7-4464-a8e0-2566ea031040; c10fb946-a52a-4709-be02-adfd54a22989, 6543b58d-48be-4076-81d7-242705449a72, d5ff57d1-f2f4-41c3-9a17-9d38643cc6b8; c3d5bdf4-317c-4574-bd52-5faec3825597, b2193225-084b-4016-a829-9625f5f60815; dfbc61aa-9c19-4b85-ba9f-aab66a99f839, 0a6bdc3e-9a22-4153-ac64-db5f4bdfbfa0",nan
18c46803-1a4a-40b4-bccb-66b9c1149108,James Johnson,james.johnson@example.com,2000-12-09,278 Walnut St,None,Salem,CA,None,nan,nan
e8ad3aab-24dd-4d31-ab59-ed4374eb68fc,James Smith,james.smith@example.com,1990-01-22,720 Walnut St,None,Georgetown,TX,None,"577e82d0-af7f-42c8-b8a4-b2aebd5f3a04, f71ad4ca-19bf-4c17-ae15-b0a3c4cc4410, 365217a2-ee94-4f53-ab0d-afa5dae82b81; 39e7879a-f9dd-46b8-b445-0ccbadc4209f, f7f814f7-2b9e-42bf-ac9d-fbd70372aebe; c9185d45-aef3-4e8e-8c96-b7fdfa1b3b5f, 0da7a765-c6a5-4769-8a82-5c2ce90266e1, e0316b35-cebb-4aca-bb21-195e46fe7b85; 7468a134-27ba-4c1e-8b24-8ff51cecfb5c, 5f6518c0-3ade-43af-8ac9-f57de1a1f923, a8ac4907-3edd-4e5c-8580-cc24023ef28d",57d37ce6-9639-481b-a8a2-3c750e1bd712
eddbd1bb-485f-43a2-8ea3-b1f8e405c273,Jane Miller,jane.miller@example.com,1978-07-01,632 Walnut St,None,Springfield,IL,None,"351ec0a1-c1f1-428c-b8be-65168be3f106, c5bfb9d7-bdaf-4022-b7f2-71a0171c0a39, 062815ec-ea52-4bc5-abe4-4c25af177dc8; c84821a7-9878-46e4-a666-34a538c10aa2, 4dafff49-03ab-44b7-ba88-0e2e22acc992, 5a076fd8-8e14-4c97-97a3-0d747dfb6883; c10fb946-a52a-4709-be02-adfd54a22989, 6543b58d-48be-4076-81d7-242705449a72, d5ff57d1-f2f4-41c3-9a17-9d38643cc6b8; 8cd0d078-9ec3-4099-936f-da60da492b7b, 8f20828e-f8eb-45a9-a8a8-2de18b98a4b2, a643c8b1-2260-47f0-a809-65f8e11fc777",ea248782-1d52-4ae4-b1f5-39434757e350
077ff601-fbf4-429c-94ea-ae4f266a0273,Sarah Taylor,sarah.taylor@example.com,1961-06-22,104 Cedar St,None,Greenville,PA,None,"10d8ebb2-a991-43c8-870b-5012d7cfe7df, d86f4850-7f97-4e8d-a6e7-aa94fe3ccd52, db80c632-ca55-44ca-9201-ab7e3e7b935f; fa1fc96f-24a5-4006-b281-fdace155fef6, 3dd7240b-6f61-4af6-b953-30cb0705bdcc; 66b3693d-0cc9-4c4a-83ae-a3fb65ac926d, dfc050e4-0c5b-4075-ae6d-ea8cac8a1624, 843baa78-1896-4ba7-9433-283632d3c36f",nan
5afe5ece-24ca-4ad4-94a5-9c0951779e62,James Brown,james.brown@example.com,1996-07-25,193 Cedar St,None,Greenville,IL,None,"4800de25-bed7-43b2-8556-35d273fc3f49, 24b4daaf-4771-450c-896c-98565cc327cb; d92604c6-1626-4794-9cce-cf0a7e136c19, 75208d53-cb69-4b0c-ada6-e6d810d4fb14, 86565318-c69d-4b24-a6e7-a8997a8ed37e",nan
b6385e80-a3fc-4713-86a3-7f84a29a3156,Bob Johnson,bob.johnson@example.com,1973-01-24,230 Spruce St,None,Salem,CA,None,"dfbc61aa-9c19-4b85-ba9f-aab66a99f839, 0a6bdc3e-9a22-4153-ac64-db5f4bdfbfa0; c9185d45-aef3-4e8e-8c96-b7fdfa1b3b5f, 0da7a765-c6a5-4769-8a82-5c2ce90266e1, e0316b35-cebb-4aca-bb21-195e46fe7b85",9a90a3f6-d6b4-432b-b6b7-57e48c53070b
891821f2-b6cf-4eb3-81f4-dc361a394f3a,Bob Davis,bob.davis@example.com,1956-06-03,136 Pine St,None,Georgetown,IL,None,"39e7879a-f9dd-46b8-b445-0ccbadc4209f, f7f814f7-2b9e-42bf-ac9d-fbd70372aebe; 71701dba-e80c-4632-8c92-1bbc924b0a07, 6c941ddb-53ee-4a0e-b912-1d0617f3db22",b59f9884-110e-4a16-8d2f-5bf416365bc9
7d71ab56-4b4a-4764-a432-c6c5c16b2488,David Smith,david.smith@example.com,1983-07-28,936 Oak St,None,Springfield,FL,None,"d4e98e77-084c-44cb-96f4-daa070339837, 7a2fc431-4201-42cd-9caf-491bbea4d309",2e5c0901-195f-4a3c-80ff-fc39e346e41e
c47e5c81-4438-42ef-b883-0c6873e0fb38,James Doe,james.doe@example.com,1976-09-12,687 Walnut St,None,Riverside,PA,None,"f9be4cc1-b02c-4b75-86d9-808f8b3b831b, aa60f295-c7a3-42b6-b33d-d89b97db7884; d92604c6-1626-4794-9cce-cf0a7e136c19, 75208d53-cb69-4b0c-ada6-e6d810d4fb14, 86565318-c69d-4b24-a6e7-a8997a8ed37e; 66b3693d-0cc9-4c4a-83ae-a3fb65ac926d, dfc050e4-0c5b-4075-ae6d-ea8cac8a1624, 843baa78-1896-4ba7-9433-283632d3c36f",nan
3e0fe6cb-9092-4729-bae6-ab2547203e82,Linda Moore,linda.moore@example.com,1979-09-27,273 Elm St,None,Greenville,OH,None,"a047ca63-0ce9-47fc-a30b-7c3c700f53f0, 0c30d0e0-7882-4a22-b25d-bc7906a6ac85, a4b2625b-b619-4ab9-939b-93e3e5c33f56; 167b9c80-7561-47be-8085-2d6928384a8d, 2c84420a-ea48-498e-a5e2-4f1c35da53d5, 39117613-cc53-48ed-96bb-deaff7fc37d3; f18ef9ba-d9d5-432e-ac60-cf6590af8acd, 7c0b011d-5a4c-4526-ad9a-df4b18928068",nan
3f33b31e-b2b8-40e0-9f35-142548ed5189,Michael Miller,michael.miller@example.com,1962-02-09,583 Elm St,None,Salem,PA,None,"a047ca63-0ce9-47fc-a30b-7c3c700f53f0, 0c30d0e0-7882-4a22-b25d-bc7906a6ac85, a4b2625b-b619-4ab9-939b-93e3e5c33f56; c9185d45-aef3-4e8e-8c96-b7fdfa1b3b5f, 0da7a765-c6a5-4769-8a82-5c2ce90266e1, e0316b35-cebb-4aca-bb21-195e46fe7b85; 41149669-ae31-4873-a214-95f409c581fb, 2d97f743-025a-44e3-9d85-8a56694596db, fe49afdf-4147-4118-9545-3f9d777f256f",nan
5277af22-3b20-4316-9aa2-06d32bb7e1b5,Michael Doe,michael.doe@example.com,1964-08-27,649 Spruce St,None,Madison,IL,None,"88e60e27-de21-40d9-a326-4ad7cc0d4f28, 11c2c53d-d613-43f5-94a1-05e10bbc65e3, 4aefa076-4126-472b-a2b9-d0703dfff36a; d24fcc15-c1ac-46b1-aca8-dc998cf45e78, 27ff2312-60fb-4128-aefb-985084dd84bd, c7c4fc45-cf72-4bac-8e31-0e5dc0f1bb46; 4800de25-bed7-43b2-8556-35d273fc3f49, 24b4daaf-4771-450c-896c-98565cc327cb",5d7e8a45-3416-448c-9352-918f1bc4831c
dab29567-062b-4544-bd95-cd3808184408,Emily Johnson,emily.johnson@example.com,1962-05-25,230 Pine St,None,Fairview,NY,None,"88e60e27-de21-40d9-a326-4ad7cc0d4f28, 11c2c53d-d613-43f5-94a1-05e10bbc65e3, 4aefa076-4126-472b-a2b9-d0703dfff36a; 4800de25-bed7-43b2-8556-35d273fc3f49, 24b4daaf-4771-450c-896c-98565cc327cb; 5a549348-08b9-406a-80ec-ce1edd4be229, 64148372-6fbd-42b9-8579-e7a976266e26, f10f5f47-30bf-4aa7-ac33-890f48b80cf6",525c9c0b-f649-4886-a9c7-a94f51593f0b
6f4fc7cd-690b-41b2-83b2-48e5f067f250,Alice Smith,alice.smith@example.com,1960-12-14,413 Birch St,None,Georgetown,CA,None,"a210e93e-b162-4d63-a046-d28ea1f309cc, 37aae3ad-460c-4bfe-bb5e-bf69cf69ae0a, 12623946-2af7-4464-a8e0-2566ea031040; 10d8ebb2-a991-43c8-870b-5012d7cfe7df, d86f4850-7f97-4e8d-a6e7-aa94fe3ccd52, db80c632-ca55-44ca-9201-ab7e3e7b935f; d92604c6-1626-4794-9cce-cf0a7e136c19, 75208d53-cb69-4b0c-ada6-e6d810d4fb14, 86565318-c69d-4b24-a6e7-a8997a8ed37e",0851e07e-e76e-4533-b8e2-62044212c4fe
cc459476-2743-4f18-9149-8b96fb507584,Alice Wilson,alice.wilson@example.com,1984-12-17,947 Spruce St,None,Riverside,OH,None,"a047ca63-0ce9-47fc-a30b-7c3c700f53f0, 0c30d0e0-7882-4a22-b25d-bc7906a6ac85, a4b2625b-b619-4ab9-939b-93e3e5c33f56; f18ef9ba-d9d5-432e-ac60-cf6590af8acd, 7c0b011d-5a4c-4526-ad9a-df4b18928068; a210e93e-b162-4d63-a046-d28ea1f309cc, 37aae3ad-460c-4bfe-bb5e-bf69cf69ae0a, 12623946-2af7-4464-a8e0-2566ea031040; 351ec0a1-c1f1-428c-b8be-65168be3f106, c5bfb9d7-bdaf-4022-b7f2-71a0171c0a39, 062815ec-ea52-4bc5-abe4-4c25af177dc8; 41149669-ae31-4873-a214-95f409c581fb, 2d97f743-025a-44e3-9d85-8a56694596db, fe49afdf-4147-4118-9545-3f9d777f256f",cbecf776-f12b-4975-bb06-05972c74723b
439b90ed-d7ea-4256-a205-3ffac2f52b8b,Alice Taylor,alice.taylor@example.com,1962-02-25,793 Oak St,None,Springfield,OH,None,"04412e42-e934-4548-9ba9-23f51c7000fc, 6e2fcabb-8f3d-49f0-886b-8ed66e343958; 167b9c80-7561-47be-8085-2d6928384a8d, 2c84420a-ea48-498e-a5e2-4f1c35da53d5, 39117613-cc53-48ed-96bb-deaff7fc37d3",2da151c6-c716-4324-9f5f-130db2b0fa3d
08779a04-1771-4c43-875a-7260f34ff122,Linda Williams,linda.williams@example.com,1966-11-14,876 Pine St,None,Georgetown,FL,None,"167b9c80-7561-47be-8085-2d6928384a8d, 2c84420a-ea48-498e-a5e2-4f1c35da53d5, 39117613-cc53-48ed-96bb-deaff7fc37d3; 167b9c80-7561-47be-8085-2d6928384a8d, 2c84420a-ea48-498e-a5e2-4f1c35da53d5, 39117613-cc53-48ed-96bb-deaff7fc37d3",7b7b2b22-c12f-49ad-973a-fa07bbfb8174
50e287da-ad3a-4ad2-b6d9-af2151980511,Alice Brown,alice.brown@example.com,1964-04-06,955 Cedar St,None,Fairview,IL,None,"d24fcc15-c1ac-46b1-aca8-dc998cf45e78, 27ff2312-60fb-4128-aefb-985084dd84bd, c7c4fc45-cf72-4bac-8e31-0e5dc0f1bb46; 5a549348-08b9-406a-80ec-ce1edd4be229, 64148372-6fbd-42b9-8579-e7a976266e26, f10f5f47-30bf-4aa7-ac33-890f48b80cf6",d2897207-c5ad-4fd4-bbe7-9af2dbd6621f
c41e0adf-e5d4-441e-bba3-ab3eb01c4645,John Doe,john.doe@example.com,2000-03-17,130 Birch St,None,Springfield,FL,None,"c9185d45-aef3-4e8e-8c96-b7fdfa1b3b5f, 0da7a765-c6a5-4769-8a82-5c2ce90266e1, e0316b35-cebb-4aca-bb21-195e46fe7b85; a210e93e-b162-4d63-a046-d28ea1f309cc, 37aae3ad-460c-4bfe-bb5e-bf69cf69ae0a, 12623946-2af7-4464-a8e0-2566ea031040; c3d5bdf4-317c-4574-bd52-5faec3825597, b2193225-084b-4016-a829-9625f5f60815",79c08775-d745-49fd-975d-edf8628debc5
8dcda979-71d2-4a12-b846-cb1a575bcb24,Jane Williams,jane.williams@example.com,1964-04-23,754 Birch St,None,Georgetown,PA,None,nan,nan
5963eba5-d6da-4298-bb22-4e118b96f26b,Bob Miller,bob.miller@example.com,1962-03-19,394 Oak St,None,Riverside,NY,None,nan,3a0fafc3-3834-4d74-ad24-890c903a8864
60d6e703-3d14-47f1-b682-f7d59489c5aa,Emily Smith,emily.smith@example.com,1988-06-10,648 Spruce St,None,Riverside,FL,None,"5a549348-08b9-406a-80ec-ce1edd4be229, 64148372-6fbd-42b9-8579-e7a976266e26, f10f5f47-30bf-4aa7-ac33-890f48b80cf6",2116a2c8-4fb3-435a-ad11-3cb5bc9a3baa
96205bfa-34df-4644-af35-50f404373030,Emily Doe,emily.doe@example.com,1962-01-16,447 Maple St,None,Riverside,CA,None,"577e82d0-af7f-42c8-b8a4-b2aebd5f3a04, f71ad4ca-19bf-4c17-ae15-b0a3c4cc4410, 365217a2-ee94-4f53-ab0d-afa5dae82b81; d92604c6-1626-4794-9cce-cf0a7e136c19, 75208d53-cb69-4b0c-ada6-e6d810d4fb14, 86565318-c69d-4b24-a6e7-a8997a8ed37e; 351ec0a1-c1f1-428c-b8be-65168be3f106, c5bfb9d7-bdaf-4022-b7f2-71a0171c0a39, 062815ec-ea52-4bc5-abe4-4c25af177dc8",nan
4c8c340b-aca5-4013-a702-b936b6e8f663,Jane Smith,jane.smith@example.com,1995-10-06,759 Cedar St,None,Springfield,NY,None,"ce75c366-c249-4564-b762-fae94bbeee1b, 730eb991-a367-4f80-8373-c00c0ee06e84; c10fb946-a52a-4709-be02-adfd54a22989, 6543b58d-48be-4076-81d7-242705449a72, d5ff57d1-f2f4-41c3-9a17-9d38643cc6b8; 6b57c035-c233-403c-956b-8954da89a830, 30de28e4-d3ae-4c14-af72-2bbd6426e15b, a4679772-25b6-42a3-89e3-ec9f85cf3507; 5a549348-08b9-406a-80ec-ce1edd4be229, 64148372-6fbd-42b9-8579-e7a976266e26, f10f5f47-30bf-4aa7-ac33-890f48b80cf6; 41149669-ae31-4873-a214-95f409c581fb, 2d97f743-025a-44e3-9d85-8a56694596db, fe49afdf-4147-4118-9545-3f9d777f256f",nan
c08be963-2753-422c-8dfc-6ae00d248777,Michael Wilson,michael.wilson@example.com,1965-08-05,181 Walnut St,None,Georgetown,NY,None,"88e60e27-de21-40d9-a326-4ad7cc0d4f28, 11c2c53d-d613-43f5-94a1-05e10bbc65e3, 4aefa076-4126-472b-a2b9-d0703dfff36a; 577e82d0-af7f-42c8-b8a4-b2aebd5f3a04, f71ad4ca-19bf-4c17-ae15-b0a3c4cc4410, 365217a2-ee94-4f53-ab0d-afa5dae82b81; 7468a134-27ba-4c1e-8b24-8ff51cecfb5c, 5f6518c0-3ade-43af-8ac9-f57de1a1f923, a8ac4907-3edd-4e5c-8580-cc24023ef28d",nan
1838a5b6-db38-4111-ab13-794b8ecb1129,David Moore,david.moore@example.com,1983-02-14,760 Birch St,None,Fairview,PA,None,nan,nan
676eb082-9298-44a3-bdf4-af43ba8ad72f,Linda Miller,linda.miller@example.com,1963-05-13,507 Elm St,None,Salem,IL,None,"04d7d4e7-8a39-43ce-ac4d-6d236bd561dd, 777b7762-57ab-4aed-82e5-f888f1136d3b, 543e853c-20d9-4f40-9f8c-3ddf6533f68e",cf3c19ee-137f-4213-bba8-528f857ed1c2
7a34acc6-7e9d-4a48-8cde-2e89e4e36b28,Linda Smith,linda.smith@example.com,1990-01-17,588 Oak St,None,Fairview,NY,None,"fa1fc96f-24a5-4006-b281-fdace155fef6, 3dd7240b-6f61-4af6-b953-30cb0705bdcc; 10d8ebb2-a991-43c8-870b-5012d7cfe7df, d86f4850-7f97-4e8d-a6e7-aa94fe3ccd52, db80c632-ca55-44ca-9201-ab7e3e7b935f",7d97f50c-65c4-4c86-a436-5e9d2fc5c2ff
ef47e5c7-7c98-4416-9ce0-c6c9d82001cf,Sarah Williams,sarah.williams@example.com,1978-03-25,830 Birch St,None,Fairview,NY,None,"c3d5bdf4-317c-4574-bd52-5faec3825597, b2193225-084b-4016-a829-9625f5f60815; d4e98e77-084c-44cb-96f4-daa070339837, 7a2fc431-4201-42cd-9caf-491bbea4d309",nan
2045e65b-0845-4d48-88f3-19c708a836cf,Michael Davis,michael.davis@example.com,1991-04-24,462 Walnut St,None,Madison,IL,None,"66b3693d-0cc9-4c4a-83ae-a3fb65ac926d, dfc050e4-0c5b-4075-ae6d-ea8cac8a1624, 843baa78-1896-4ba7-9433-283632d3c36f; a210e93e-b162-4d63-a046-d28ea1f309cc, 37aae3ad-460c-4bfe-bb5e-bf69cf69ae0a, 12623946-2af7-4464-a8e0-2566ea031040; d24fcc15-c1ac-46b1-aca8-dc998cf45e78, 27ff2312-60fb-4128-aefb-985084dd84bd, c7c4fc45-cf72-4bac-8e31-0e5dc0f1bb46",nan
c4d33385-848f-42f6-843b-220fa0b0f8fc,Michael Williams,michael.williams@example.com,1994-08-08,847 Walnut St,None,Madison,TX,None,"f18ef9ba-d9d5-432e-ac60-cf6590af8acd, 7c0b011d-5a4c-4526-ad9a-df4b18928068; cacf6a8b-c266-4454-a56d-a6e3af9c894d, c36473a3-56d9-4ba2-9eee-c6a651dfab9b",3a0cd40a-bd21-4359-9b36-c4bf30380f9b
c4a82bb0-ba9d-446f-a121-ba7d2996c39e,Jane Taylor,jane.taylor@example.com,1955-05-29,766 Cedar St,None,Madison,FL,None,"66b3693d-0cc9-4c4a-83ae-a3fb65ac926d, dfc050e4-0c5b-4075-ae6d-ea8cac8a1624, 843baa78-1896-4ba7-9433-283632d3c36f; d92604c6-1626-4794-9cce-cf0a7e136c19, 75208d53-cb69-4b0c-ada6-e6d810d4fb14, 86565318-c69d-4b24-a6e7-a8997a8ed37e; fa1fc96f-24a5-4006-b281-fdace155fef6, 3dd7240b-6f61-4af6-b953-30cb0705bdcc; 8cd0d078-9ec3-4099-936f-da60da492b7b, 8f20828e-f8eb-45a9-a8a8-2de18b98a4b2, a643c8b1-2260-47f0-a809-65f8e11fc777",nan
0a10e180-a33a-4d04-8519-ae951f56b478,Sarah Johnson,sarah.johnson@example.com,1999-12-18,719 Maple St,None,Madison,CA,None,"5a549348-08b9-406a-80ec-ce1edd4be229, 64148372-6fbd-42b9-8579-e7a976266e26, f10f5f47-30bf-4aa7-ac33-890f48b80cf6; d92604c6-1626-4794-9cce-cf0a7e136c19, 75208d53-cb69-4b0c-ada6-e6d810d4fb14, 86565318-c69d-4b24-a6e7-a8997a8ed37e; 10d8ebb2-a991-43c8-870b-5012d7cfe7df, d86f4850-7f97-4e8d-a6e7-aa94fe3ccd52, db80c632-ca55-44ca-9201-ab7e3e7b935f; 04412e42-e934-4548-9ba9-23f51c7000fc, 6e2fcabb-8f3d-49f0-886b-8ed66e343958; 351ec0a1-c1f1-428c-b8be-65168be3f106, c5bfb9d7-bdaf-4022-b7f2-71a0171c0a39, 062815ec-ea52-4bc5-abe4-4c25af177dc8",nan
57101157-bd0a-4615-8778-df69fe8360c6,Sarah Miller,sarah.miller@example.com,1950-06-24,710 Elm St,None,Riverside,OH,None,"167b9c80-7561-47be-8085-2d6928384a8d, 2c84420a-ea48-498e-a5e2-4f1c35da53d5, 39117613-cc53-48ed-96bb-deaff7fc37d3",nan
